STARLINK-34408          
1 64363U 25126V   26027.54923633  .00004470  00000+0  38205-3 0  9995
2 64363  70.0009 138.0168 0003069 268.4925  91.5882 14.98342221 34524
STARLINK-34476          
1 64364U 25126W   26027.00002315 -.00029798  00000+0 -24993-2 0  9992
2 64364  70.0006 139.5270 0003139 269.6067 256.3061 14.98344052  5780
STARLINK-34479          
1 64365U 25126X   26027.47832984  .00005224  00000+0  44524-3 0  9996
2 64365  70.0008 138.5701 0002860 255.9917 104.0924 14.98336802 34506
STARLINK-34484          
1 64366U 25126Y   26027.48665432  .00007293  00000+0  61834-3 0  9991
2 64366  70.0022 138.1994 0002859 259.1527 100.9311 14.98329880 35722
STARLINK-34483          
1 64367U 25126Z   26027.42377212  .00708396  00000+0  53661-1 0  9991
2 64367  70.0026 138.3772 0007805 222.6739 137.3815 14.99821782 34506
STARLINK-34457          
1 64368U 25126AA  26027.52839376  .00047876  00000+0  39857-2 0  9998
2 64368  70.0061 138.3450 0001806 282.8280  77.2677 14.98400690 34512
STARLINK-34444          
1 64369U 25126AB  26027.53257758 -.00062936  00000+0 -52979-2 0  9994
2 64369  69.9993 138.3585 0004665 292.9124  67.1542 14.98442384 34513
STARLINK-11732 [DTC]    
1 64370U 25127A   26027.56385675  .00278426  00000+0  20853-2 0  9997
2 64370  42.9993 332.4950 0001908 290.4869  69.5794 15.71024423 37032
STARLINK-11731 [DTC]    
1 64371U 25127B   26026.88037091  .00200689  00000+0  15193-2 0  9995
2 64371  42.9997 336.8379 0003535 168.3797 191.7153 15.71004720 36923
STARLINK-11746 [DTC]    
1 64372U 25127C   26026.97568131  .00167448  00000+0  12803-2 0  9990
2 64372  42.9998 335.8146 0001537 244.2317 115.8393 15.70877176 36945
STARLINK-11748 [DTC]    
1 64373U 25127D   26026.89190147  .00264672  00000+0  20039-2 0  9997
2 64373  42.9992 336.9292 0001878 218.2988 141.7747 15.70807000 36925
STARLINK-11739 [DTC]    
1 64374U 25127E   26026.89617422  .00407961  00000+0  29873-2 0  9993
2 64374  42.9996 336.0683 0002532 258.8442 101.2141 15.71173922 36938
STARLINK-11738 [DTC]    
1 64375U 25127F   26027.58337963 -.00130894  00000+0 -10306-2 0  9991
2 64375  43.0004 332.7477 0001706 266.0987  54.2120 15.70887441  5984
STARLINK-11745 [DTC]    
1 64376U 25127G   26027.55855544  .00359485  00000+0  26625-2 0  9997
2 64376  43.0004 332.4484 0001293   6.9729 353.1157 15.71045738 37034
STARLINK-11742 [DTC]    
1 64377U 25127H   26026.87506511  .00293623  00000+0  22066-2 0  9995
2 64377  43.0007 336.7924 0001308 237.6548 122.4193 15.70896615 36924
STARLINK-11711 [DTC]    
1 64378U 25127J   26026.90678884  .00274653  00000+0  20753-2 0  9996
2 64378  42.9993 336.1497 0001740 214.4202 145.6553 15.70824318 37048
STARLINK-11743 [DTC]    
1 64379U 25127K   26027.58337963 -.00082792  00000+0 -64768-3 0  9990
2 64379  43.0007 332.6711 0001596 253.0714  97.3138 15.70856933  5947
STARLINK-11744 [DTC]    
1 64380U 25127L   26026.55184328  .00364140  00000+0  27001-2 0  9999
2 64380  42.9998 338.6651 0001379 320.1301  39.9465 15.71004955 36873
STARLINK-11692 [DTC]    
1 64381U 25127M   26027.55323705  .00321535  00000+0  23928-2 0  9990
2 64381  42.9992 332.4036 0001907 285.0245  75.0412 15.71046935 37148
STARLINK-11740 [DTC]    
1 64382U 25127N   26027.53731218  .00328075  00000+0  24414-2 0  9998
2 64382  42.9993 332.2745 0001610 293.9097  66.1602 15.71027067 37034
STARLINK-34299          
1 64383U 25127P   26026.39119312  .00031163  00000+0  11363-2 0  9995
2 64383  43.0036  59.0465 0000225 294.9936  65.0892 15.27605620 35947
STARLINK-34271          
1 64384U 25127Q   26027.49119491  .00056602  00000+0  20489-2 0  9990
2 64384  43.0017  52.6806 0001456 279.3634  80.7053 15.27608664 36163
STARLINK-34100          
1 64385U 25127R   26027.36428123  .00042605  00000+0  15485-2 0  9990
2 64385  43.0014  53.4503 0000928 280.4620  79.6127 15.27587608 36090
STARLINK-34269          
1 64386U 25127S   26027.38340942  .00039056  00000+0  14206-2 0  9991
2 64386  43.0051  52.7221 0000919 290.7856  69.2897 15.27596191 36159
STARLINK-34351          
1 64387U 25127T   26027.38212050  .00033659  00000+0  12261-2 0  9992
2 64387  43.0062  52.7103 0001606 272.2834  87.7834 15.27606351 36152
STARLINK-34198          
1 64388U 25127U   26025.81157111  .00036115  00000+0  13155-2 0  9998
2 64388  43.0019  61.5680 0000405 320.2385  39.8437 15.27580776 35916
STARLINK-34279          
1 64389U 25127V   26027.37840550  .00043072  00000+0  15623-2 0  9990
2 64389  43.0017  53.5539 0000494 240.3920 119.6882 15.27650069 36144
STARLINK-34292          
1 64390U 25127W   26027.35657068  .00073798  00000+0  26597-2 0  9990
2 64390  42.9956  53.3826 0001060 124.2284 235.8668 15.27640605 36144
STARLINK-34278          
1 64391U 25127X   26027.38597560  .00045845  00000+0  16642-2 0  9996
2 64391  43.0046  52.7418 0001150 256.6356 103.4367 15.27599120 36159
STARLINK-33802          
1 64392U 25127Y   26027.04120468  .00053908  00000+0  19491-2 0  9993
2 64392  42.9993  55.3280 0000526 172.3962 187.6898 15.27665695 36141
STARLINK-34419          
1 64412U 25129A   26026.83205444 -.00004561  00000+0 -37437-3 0  9996
2 64412  69.9997 180.1394 0003728 278.6447  81.4290 14.98363714 35033
STARLINK-34275          
1 64413U 25129B   26027.54570924  .00009350  00000+0  79014-3 0  9990
2 64413  70.0010 178.2227 0002495 259.6445 100.4433 14.98339261 35124
STARLINK-34225          
1 64414U 25129C   26027.50802649  .00013990  00000+0  11776-2 0  9994
2 64414  70.0006 178.4866 0002230 272.7532  87.3372 14.98343087 35116
STARLINK-34422          
1 64415U 25129D   26027.48713747  .00004940  00000+0  42127-3 0  9992
2 64415  70.0018 178.4218 0002637 265.8059  94.2798 14.98351076 35058
STARLINK-34514          
1 64416U 25129E   26027.44956623  .00005981  00000+0  50841-3 0  9999
2 64416  70.0023 178.2956 0004237 290.8661  69.2044 14.98341078 35111
STARLINK-34487          
1 64417U 25129F   26027.52049845  .00010272  00000+0  86696-3 0  9994
2 64417  70.0004 178.1334 0002801 264.8137  95.2702 14.98351297 35062
STARLINK-34461          
1 64418U 25129G   26027.58337963 -.00036790  00000+0 -30894-2 0  9995
2 64418  70.0005 178.2755 0003339 270.3186 157.8279 14.98358300  5822
STARLINK-34512          
1 64419U 25129H   26027.49130859  .00004308  00000+0  36859-3 0  9997
2 64419  70.0005 178.4297 0002128 273.3603  86.7312 14.98334143 35053
STARLINK-34503          
1 64420U 25129J   26027.62916729  .00006168  00000+0  52430-3 0  9991
2 64420  70.0002 178.1102 0003209 273.0740  87.0052 14.98329787 35079
STARLINK-34498          
1 64421U 25129K   26027.48297967  .00010503  00000+0  88650-3 0  9993
2 64421  69.9998 178.4081 0003555 275.9860  84.0894 14.98340144 35114
STARLINK-34434          
1 64422U 25129L   26027.50383058 -.00005218  00000+0 -42954-3 0  9990
2 64422  70.0001 178.4796 0003373 267.0956  92.9817 14.98353961 35116
STARLINK-34467          
1 64423U 25129M   26027.67071503  .00006377  00000+0  54156-3 0  9990
2 64423  70.0008 177.8576 0003366 276.5216  83.5560 14.98343075 35148
STARLINK-34468          
1 64424U 25129N   26027.50817714  .00009276  00000+0  78389-3 0  9990
2 64424  70.0003 178.4907 0002716 275.6484  84.4366 14.98345975 35116
STARLINK-34452          
1 64425U 25129P   26027.52484612  .00008632  00000+0  73004-3 0  9994
2 64425  70.0006 178.1476 0002690 270.7584  89.3266 14.98346572 35124
STARLINK-34432          
1 64426U 25129Q   26027.54136852  .00008220  00000+0  69567-3 0  9999
2 64426  69.9998 178.2002 0002729 253.0760 107.0100 14.98344420 35069
STARLINK-34480          
1 64427U 25129R   26027.52467262  .00002542  00000+0  22064-3 0  9992
2 64427  70.0009 178.1446 0002569 277.5400  82.5467 14.98342949 35125
STARLINK-34495          
1 64428U 25129S   26027.53301993  .00006707  00000+0  56916-3 0  9992
2 64428  70.0005 178.1790 0002568 259.3814 100.7055 14.98346190 35128
STARLINK-34501          
1 64429U 25129T   26027.49548094  .00003995  00000+0  34237-3 0  9991
2 64429  69.9998 178.4504 0002896 270.2275  89.8552 14.98335790 35112
STARLINK-34441          
1 64430U 25129U   26027.54554522  .00006813  00000+0  57808-3 0  9993
2 64430  70.0007 178.2223 0002979 271.9577  88.1241 14.98338436 35127
STARLINK-34524          
1 64431U 25129V   26027.52884302  .00012188  00000+0  10275-2 0  9992
2 64431  69.9961 178.1533 0002657 256.2062 103.8801 14.98326621 35068
STARLINK-34506          
1 64432U 25129W   26027.44538773  .00007041  00000+0  59702-3 0  9993
2 64432  70.0022 178.2718 0003022 250.4853 109.5980 14.98348269 35059
STARLINK-34451          
1 64433U 25129X   26027.49970102  .00015056  00000+0  12648-2 0  9997
2 64433  70.0028 178.4584 0002931 247.1351 112.9498 14.98394880 35055
STARLINK-34472          
1 64434U 25129Y   26027.48313064  .00033668  00000+0  28166-2 0  9996
2 64434  70.0012 178.4039 0002420 273.5274  86.5608 14.98321634 35117
STARLINK-34478          
1 64435U 25129Z   26027.53318317  .00009851  00000+0  83178-3 0  9991
2 64435  69.9988 178.1711 0002617 245.9737 114.1148 14.98350365 35060
STARLINK-34396          
1 64436U 25129AA  26027.49147185  .00004038  00000+0  34598-3 0  9994
2 64436  69.9991 178.4231 0003398 271.9768  88.1002 14.98336095 35057
STARLINK-34507          
1 64437U 25129AB  26027.52066398  .00003085  00000+0  26621-3 0  9994
2 64437  70.0008 178.1330 0002750 270.7570  89.3274 14.98337174 35127
STARLINK-34465          
1 64438U 25130A   26027.67256734  .00033682  00000+0  11439-2 0  9994
2 64438  53.1586 279.0276 0000920  27.6826 332.4224 15.30207413 34429
STARLINK-34456          
1 64439U 25130B   26027.20480037  .00032006  00000+0  10865-2 0  9990
2 64439  53.1590 281.0868 0001673 105.0842 255.0344 15.30247011 34353
STARLINK-34410          
1 64440U 25130C   26026.73809569  .00030531  00000+0  10384-2 0  9991
2 64440  53.1570 283.1496 0001864  84.7466 275.3747 15.30208782 34286
